     2.100          NAVIGATION                              RINEX VERSION / TYPE
fic2rin                                 11/08/2016 00:08:57 PGM / RUN BY / DATE
                                                            END OF HEADER
 9 16 11  7 18  0  0.0  .240133143961D-03  .727595761418D-11  .000000000000D+00
     .170000000000D+02  .247812500000D+02  .489663253583D-08  .699264703867D+00
     .122003257275D-05  .681471778080D-03  .688433647156D-05  .515374820328D+04
     .151200000000D+06 -.447034835815D-07 -.308578672055D+01 -.298023223877D-07
     .954670951431D+00  .242906250000D+03  .180808315776D+01 -.819641284207D-08
    -.136434254463D-09  .100000000000D+01  .192200000000D+04  .000000000000D+00
     .240000000000D+01  .000000000000D+00  .139698386192D-08  .170000000000D+02
     .144006000000D+06  .400000000000D+01
10 16 11  7 18  0  0.0 -.112975016236D-03 -.193267624127D-11  .000000000000D+00
     .780000000000D+02  .490625000000D+01  .465269380337D-08  .262978226400D+01
     .365078449249D-06  .187544699293D-02  .917911529541D-05  .515367992020D+04
     .151200000000D+06 -.931322574615D-07  .215582024520D+01 -.465661287308D-07
     .959545897715D+00  .202906250000D+03 -.293202284641D+01 -.799426156451D-08
     .249296098469D-09  .100000000000D+01  .192200000000D+04  .000000000000D+00
     .240000000000D+01  .000000000000D+00  .232830643654D-08  .780000000000D+02
     .144006000000D+06  .400000000000D+01
12 16 11  7 18  0  0.0  .389474909753D-03  .000000000000D+00  .000000000000D+00
     .560000000000D+02  .455625000000D+02  .369051086745D-08 -.284464451674D+01
     .242888927460D-05  .607543985825D-02  .745244324207D-05  .515363504982D+04
     .151200000000D+06  .111758708954D-07 -.927211626520D+00 -.726431608200D-07
     .989982181920D+00  .249343750000D+03  .781883030189D+00 -.769067749044D-08
     .171078554680D-09  .100000000000D+01  .192200000000D+04  .000000000000D+00
     .240000000000D+01  .000000000000D+00 -.125728547573D-07  .560000000000D+02
     .144006000000D+06  .400000000000D+01
13 16 11  7 18  0  0.0 -.536437146366D-04 -.204636307899D-11  .000000000000D+00
     .750000000000D+02  .234062500000D+02  .462912139292D-08 -.123190111623D+01
     .122003257275D-05  .402488175314D-02  .655278563499D-05  .515368363190D+04
     .151200000000D+06 -.968575477600D-07 -.296263900517D+01 -.931322574615D-08
     .970910635331D+00  .255468750000D+03  .190596235583D+01 -.812498129523D-08
    -.206080012631D-09  .100000000000D+01  .192200000000D+04  .000000000000D+00
     .240000000000D+01  .000000000000D+00 -.111758708954D-07  .750000000000D+02
     .144006000000D+06  .400000000000D+01
14 16 11  7 18  0  0.0 -.439533032477D-04 -.170530256582D-11  .000000000000D+00
     .760000000000D+02  .206875000000D+02  .481805783431D-08  .104713083823D+00
     .112131237984D-05  .868709303904D-02  .676698982716D-05  .515359755135D+04
     .151200000000D+06 -.409781932831D-07 -.300073260783D+01  .316649675369D-07
     .963414507041D+00  .252125000000D+03 -.194481425915D+01 -.837106297409D-08
    -.214651798252D-09  .100000000000D+01  .192200000000D+04  .000000000000D+00
     .240000000000D+01  .000000000000D+00 -.931322574615D-08  .760000000000D+02
     .144006000000D+06  .400000000000D+01
15 16 11  7 18  0  0.0 -.333539210260D-03 -.125055521494D-11  .000000000000D+00
     .160000000000D+02  .270000000000D+02  .560451916500D-08 -.228815805291D+00
     .139884650707D-05  .874309870414D-02  .621937215328D-05  .515369082642D+04
     .151200000000D+06  .372529029846D-07  .314080830567D+01  .106170773506D-06
     .930341011637D+00  .240750000000D+03  .527159585010D+00 -.868357599151D-08
    -.127862468842D-09  .100000000000D+01  .192200000000D+04  .000000000000D+00
     .240000000000D+01  .000000000000D+00 -.107102096081D-07  .160000000000D+02
     .144006000000D+06  .400000000000D+01
16 16 11  7 18  0  0.0  .145509839058D-04  .159161572810D-11  .000000000000D+00
     .350000000000D+02  .412500000000D+02  .372944106048D-08  .149208767830D+01
     .228546559811D-05  .875510124024D-02  .695697963238D-05  .515359793282D+04
     .151200000000D+06 -.856816768646D-07 -.908393787962D+00  .931322574615D-07
     .990485435980D+00  .262968750000D+03  .382242030623D+00 -.784818405122D-08
    -.357157734196D-11  .100000000000D+01  .192200000000D+04  .000000000000D+00
     .240000000000D+01  .000000000000D+00 -.102445483208D-07  .350000000000D+02
     .144006000000D+06  .400000000000D+01
17 16 11  7 18  0  0.0 -.199628528208D-03  .795807864051D-12  .000000000000D+00
     .470000000000D+02 -.256562500000D+02  .434196657462D-08  .491189428423D+00
    -.143982470036D-05  .114158031065D-01  .478699803352D-05  .515376664352D+04
     .151200000000D+06 -.216066837311D-06  .110882857436D+00  .204890966415D-07
     .978319086551D+00  .297125000000D+03 -.191448956634D+01 -.833606151614D-08
     .389301930274D-10  .100000000000D+01  .192200000000D+04  .000000000000D+00
     .240000000000D+01  .000000000000D+00 -.107102096081D-07  .470000000000D+02
     .144006000000D+06  .400000000000D+01
18 16 11  7 18  0  0.0  .573957338929D-03  .329691829393D-11  .000000000000D+00
     .290000000000D+02 -.440625000000D+01  .532450750140D-08  .207958950636D+01
    -.413507223129D-06  .172794086393D-01  .915862619877D-05  .515372668076D+04
     .151200000000D+06  .122934579849D-06  .212093500914D+01 -.422820448875D-06
     .925041059856D+00  .182312500000D+03 -.185277473747D+01 -.815212528303D-08
     .220009164265D-09  .100000000000D+01  .192200000000D+04  .000000000000D+00
     .240000000000D+01  .000000000000D+00 -.111758708954D-07  .290000000000D+02
     .144006000000D+06  .400000000000D+01
19 16 11  7 18  0  0.0 -.520429108292D-03  .682121026330D-12  .000000000000D+00
     .280000000000D+02 -.358437500000D+02  .435946730360D-08 -.263520468836D+01
    -.199675559998D-05  .103364280658D-01  .440143048763D-05  .515363566971D+04
     .151200000000D+06  .819563865662D-07  .159194745386D+00 -.109896063805D-06
     .975472964799D+00  .301312500000D+03  .885715898148D+00 -.805604985253D-08
     .171078554680D-09  .100000000000D+01  .192200000000D+04  .000000000000D+00
     .240000000000D+01  .000000000000D+00 -.149011611938D-07  .280000000000D+02
     .144006000000D+06  .400000000000D+01
20 16 11  7 18  0  0.0  .444808509201D-03  .193267624127D-11  .000000000000D+00
     .101000000000D+03 -.703125000000D+01  .544665544649D-08 -.350470368463D+00
    -.236555933952D-06  .475026923232D-02  .931881368160D-05  .515359833908D+04
     .151200000000D+06 -.186264514923D-07  .206934055977D+01 -.167638063431D-07
     .926318503330D+00  .182437500000D+03  .148428962420D+01 -.846035240764D-08
     .201436962087D-09  .100000000000D+01  .192200000000D+04  .000000000000D+00
     .240000000000D+01  .000000000000D+00 -.838190317154D-08  .101000000000D+03
     .144006000000D+06  .400000000000D+01
21 16 11  7 18  0  0.0 -.532105565071D-03  .909494701773D-12  .000000000000D+00
     .600000000000D+02 -.818750000000D+02  .496092092798D-08  .302691300148D+01
    -.438652932644D-05  .233956159791D-01  .748038291931D-05  .515379973030D+04
     .151200000000D+06  .316649675369D-06  .107923937531D+01 -.186264514923D-06
     .937538973816D+00  .220968750000D+03 -.174516488567D+01 -.789711466081D-08
     .432160858377D-10  .100000000000D+01  .192200000000D+04  .000000000000D+00
     .485000000000D+01  .000000000000D+00 -.977888703346D-08  .600000000000D+02
     .144006000000D+06  .400000000000D+01
22 16 11  7 18  0  0.0  .196808483452D-03 -.106865627458D-10  .000000000000D+00
     .560000000000D+02  .884375000000D+01  .558058959681D-08  .121514042576D-01
     .521540641785D-06  .733129389118D-02  .926665961742D-05  .515367914200D+04
     .151200000000D+06 -.113621354103D-06  .212123747915D+01  .633299350739D-07
     .923003340783D+00  .181750000000D+03 -.185107136394D+01 -.861750181068D-08
     .229652423088D-09  .100000000000D+01  .192200000000D+04  .000000000000D+00
     .240000000000D+01  .000000000000D+00 -.176951289177D-07  .560000000000D+02
     .144006000000D+06  .400000000000D+01
23 16 11  7 18  0  0.0 -.195960048586D-03 -.125055521494D-11  .000000000000D+00
     .870000000000D+02  .220000000000D+02  .515771483953D-08 -.718394581389D+00
     .114552676678D-05  .111274740193D-01  .648386776447D-05  .515358605576D+04
     .151200000000D+06  .152736902237D-06 -.308208588891D+01  .178813934326D-06
     .945572648428D+00  .244906250000D+03 -.252404261545D+01 -.843928010132D-08
    -.198222542479D-09  .100000000000D+01  .192200000000D+04  .000000000000D+00
     .240000000000D+01  .000000000000D+00 -.200234353542D-07  .870000000000D+02
     .144006000000D+06  .400000000000D+01
24 16 11  7 18  0  0.0 -.257720239460D-04 -.568434188608D-12  .000000000000D+00
     .740000000000D+02  .871875000000D+01  .473769734411D-08 -.129183431422D+01
     .480562448502D-06  .493481673766D-02  .824406743050D-05  .515371886635D+04
     .151200000000D+06  .819563865662D-07 -.205737798898D+01 -.160187482834D-06
     .947564361653D+00  .215750000000D+03  .393413687922D+00 -.815641117584D-08
    -.398945189097D-09  .100000000000D+01  .192200000000D+04  .000000000000D+00
     .240000000000D+01  .000000000000D+00  .232830643654D-08  .740000000000D+02
     .144006000000D+06  .400000000000D+01
26 16 11  7 18  0  0.0 -.497874338180D-03 -.488853402203D-11  .000000000000D+00
     .590000000000D+02  .396875000000D+02  .439161149968D-08  .255472305630D+01
     .209175050259D-05  .119218730833D-02  .670365989208D-05  .515361158562D+04
     .151200000000D+06 -.372529029846D-08 -.991953420144D+00  .186264514923D-08
     .959926470002D+00  .250250000000D+03 -.195083809498D+00 -.812962434577D-08
     .692886004340D-10  .100000000000D+01  .192200000000D+04  .000000000000D+00
     .240000000000D+01  .000000000000D+00  .745058059692D-08  .590000000000D+02
     .144006000000D+06  .400000000000D+01
